[{"OBJECT_NAME":"ONEWEB-0353","OBJECT_ID":"2021-090D","EPOCH":"2026-06-10T01:20:07.230336","MEAN_MOTION":13.14502786,"ECCENTRICITY":0.0001644,"INCLINATION":87.8964,"RA_OF_ASC_NODE":291.126,"ARG_OF_PERICENTER":96.3657,"MEAN_ANOMALY":263.766,"EPHEMERIS_TYPE":0,"CLASSIFICATION_TYPE":"U","NORAD_CAT_ID":49282,"ELEMENT_SET_NO":999,"REV_AT_EPOCH":22664,"BSTAR":0.00023504,"MEAN_MOTION_DOT":1e-06,"MEAN_MOTION_DDOT":0.0},{"OBJECT_NAME":"ONEWEB-0356","OBJECT_ID":"2021-090E","EPOCH":"2026-06-10T00:42:20.520288","MEAN_MOTION":13.20773429,"ECCENTRICITY":0.0002286,"INCLINATION":87.9189,"RA_OF_ASC_NODE":275.861,"ARG_OF_PERICENTER":80.3829,"MEAN_ANOMALY":279.7563,"EPHEMERIS_TYPE":0,"CLASSIFICATION_TYPE":"U","NORAD_CAT_ID":49283,"ELEMENT_SET_NO":999,"REV_AT_EPOCH":22888,"BSTAR":6.0994000000000006e-05,"MEAN_MOTION_DOT":3.8e-07,"MEAN_MOTION_DDOT":0.0},{"OBJECT_NAME":"ONEWEB-0358","OBJECT_ID":"2021-090F","EPOCH":"2026-06-10T01:25:39.201600","MEAN_MOTION":13.20418322,"ECCENTRICITY":0.0002045,"INCLINATION":87.9195,"RA_OF_ASC_NODE":275.859,"ARG_OF_PERICENTER":98.7378,"MEAN_ANOMALY":261.3987,"EPHEMERIS_TYPE":0,"CLASSIFICATION_TYPE":"U","NORAD_CAT_ID":49284,"ELEMENT_SET_NO":999,"REV_AT_EPOCH":22961,"BSTAR":-0.078017,"MEAN_MOTION_DOT":-0.00031434,"MEAN_MOTION_DDOT":0.0},{"OBJECT_NAME":"ONEWEB-0359","OBJECT_ID":"2021-090G","EPOCH":"2026-06-10T01:21:07.627392","MEAN_MOTION":13.20772484,"ECCENTRICITY":0.0002257,"INCLINATION":87.919,"RA_OF_ASC_NODE":275.8554,"ARG_OF_PERICENTER":102.1716,"MEAN_ANOMALY":257.967,"EPHEMERIS_TYPE":0,"CLASSIFICATION_TYPE":"U","NORAD_CAT_ID":49285,"ELEMENT_SET_NO":999,"REV_AT_EPOCH":22959,"BSTAR":5.3692e-05,"MEAN_MOTION_DOT":3.5e-07,"MEAN_MOTION_DDOT":0.0},{"OBJECT_NAME":"ONEWEB-0360","OBJECT_ID":"2021-090H","EPOCH":"2026-06-10T01:06:35.086752","MEAN_MOTION":13.20765509,"ECCENTRICITY":0.0002112,"INCLINATION":87.9191,"RA_OF_ASC_NODE":275.8637,"ARG_OF_PERICENTER":102.677,"MEAN_ANOMALY":257.46,"EPHEMERIS_TYPE":0,"CLASSIFICATION_TYPE":"U","NORAD_CAT_ID":49286,"ELEMENT_SET_NO":999,"REV_AT_EPOCH":22890,"BSTAR":0.0032004,"MEAN_MOTION_DOT":1.314e-05,"MEAN_MOTION_DDOT":0.0},{"OBJECT_NAME":"ONEWEB-0361","OBJECT_ID":"2021-090J","EPOCH":"2026-06-10T00:39:54.110304","MEAN_MOTION":13.20770849,"ECCENTRICITY":0.0002097,"INCLINATION":87.919,"RA_OF_ASC_NODE":275.8659,"ARG_OF_PERICENTER":99.4181,"MEAN_ANOMALY":260.719,"EPHEMERIS_TYPE":0,"CLASSIFICATION_TYPE":"U","NORAD_CAT_ID":49287,"ELEMENT_SET_NO":999,"REV_AT_EPOCH":22935,"BSTAR":-7.1289000000000005e-06,"MEAN_MOTION_DOT":1e-07,"MEAN_MOTION_DDOT":0.0},{"OBJECT_NAME":"ONEWEB-0362","OBJECT_ID":"2021-090K","EPOCH":"2026-06-10T03:01:48.716256","MEAN_MOTION":13.19724096,"ECCENTRICITY":0.0001803,"INCLINATION":87.9163,"RA_OF_ASC_NODE":306.3851,"ARG_OF_PERICENTER":106.181,"MEAN_ANOMALY":253.9521,"EPHEMERIS_TYPE":0,"CLASSIFICATION_TYPE":"U","NORAD_CAT_ID":49288,"ELEMENT_SET_NO":999,"REV_AT_EPOCH":22598,"BSTAR":1.9078000000000003e-05,"MEAN_MOTION_DOT":2.1e-07,"MEAN_MOTION_DDOT":0.0},{"OBJECT_NAME":"ONEWEB-0363","OBJECT_ID":"2021-090L","EPOCH":"2026-06-10T01:01:42.763584","MEAN_MOTION":13.2077041,"ECCENTRICITY":0.0002123,"INCLINATION":87.9191,"RA_OF_ASC_NODE":275.8631,"ARG_OF_PERICENTER":92.4226,"MEAN_ANOMALY":267.7151,"EPHEMERIS_TYPE":0,"CLASSIFICATION_TYPE":"U","NORAD_CAT_ID":49289,"ELEMENT_SET_NO":999,"REV_AT_EPOCH":22936,"BSTAR":-2.1656e-06,"MEAN_MOTION_DOT":1.2e-07,"MEAN_MOTION_DDOT":0.0},{"OBJECT_NAME":"ONEWEB-0364","OBJECT_ID":"2021-090M","EPOCH":"2026-06-09T18:41:07.266048","MEAN_MOTION":13.20770982,"ECCENTRICITY":0.0001967,"INCLINATION":87.9185,"RA_OF_ASC_NODE":275.9238,"ARG_OF_PERICENTER":101.248,"MEAN_ANOMALY":258.8875,"EPHEMERIS_TYPE":0,"CLASSIFICATION_TYPE":"U","NORAD_CAT_ID":49290,"ELEMENT_SET_NO":999,"REV_AT_EPOCH":23046,"BSTAR":-1.19e-05,"MEAN_MOTION_DOT":8e-08,"MEAN_MOTION_DDOT":0.0},{"OBJECT_NAME":"ONEWEB-0365","OBJECT_ID":"2021-090N","EPOCH":"2026-06-10T03:15:28.023264","MEAN_MOTION":13.19724463,"ECCENTRICITY":0.0001774,"INCLINATION":87.9172,"RA_OF_ASC_NODE":306.3713,"ARG_OF_PERICENTER":98.9249,"MEAN_ANOMALY":261.2085,"EPHEMERIS_TYPE":0,"CLASSIFICATION_TYPE":"U","NORAD_CAT_ID":49291,"ELEMENT_SET_NO":999,"REV_AT_EPOCH":22549,"BSTAR":-7.3572e-05,"MEAN_MOTION_DOT":-1.7e-07,"MEAN_MOTION_DDOT":0.0},{"OBJECT_NAME":"ONEWEB-0366","OBJECT_ID":"2021-090P","EPOCH":"2026-06-10T01:15:32.924160","MEAN_MOTION":13.14502575,"ECCENTRICITY":0.0001929,"INCLINATION":87.8958,"RA_OF_ASC_NODE":291.1288,"ARG_OF_PERICENTER":100.04,"MEAN_ANOMALY":260.0947,"EPHEMERIS_TYPE":0,"CLASSIFICATION_TYPE":"U","NORAD_CAT_ID":49292,"ELEMENT_SET_NO":999,"REV_AT_EPOCH":22662,"BSTAR":0.00034029,"MEAN_MOTION_DOT":1.39e-06,"MEAN_MOTION_DDOT":0.0},{"OBJECT_NAME":"ONEWEB-0367","OBJECT_ID":"2021-090Q","EPOCH":"2026-06-10T01:00:31.296096","MEAN_MOTION":13.20787801,"ECCENTRICITY":0.0001888,"INCLINATION":87.9195,"RA_OF_ASC_NODE":275.8645,"ARG_OF_PERICENTER":104.8326,"MEAN_ANOMALY":255.3016,"EPHEMERIS_TYPE":0,"CLASSIFICATION_TYPE":"U","NORAD_CAT_ID":49293,"ELEMENT_SET_NO":999,"REV_AT_EPOCH":22888,"BSTAR":0.0028224,"MEAN_MOTION_DOT":1.161e-05,"MEAN_MOTION_DDOT":0.0},{"OBJECT_NAME":"ONEWEB-0368","OBJECT_ID":"2021-090R","EPOCH":"2026-06-09T20:44:44.291328","MEAN_MOTION":13.20770193,"ECCENTRICITY":0.0001601,"INCLINATION":87.9178,"RA_OF_ASC_NODE":275.911,"ARG_OF_PERICENTER":78.8737,"MEAN_ANOMALY":281.2576,"EPHEMERIS_TYPE":0,"CLASSIFICATION_TYPE":"U","NORAD_CAT_ID":49294,"ELEMENT_SET_NO":999,"REV_AT_EPOCH":23001,"BSTAR":-9.3773e-05,"MEAN_MOTION_DOT":-2.5e-07,"MEAN_MOTION_DDOT":0.0},{"OBJECT_NAME":"ONEWEB-0369","OBJECT_ID":"2021-090S","EPOCH":"2026-06-10T03:08:38.950368","MEAN_MOTION":13.19724343,"ECCENTRICITY":0.0001785,"INCLINATION":87.9162,"RA_OF_ASC_NODE":306.3804,"ARG_OF_PERICENTER":96.2186,"MEAN_ANOMALY":263.915,"EPHEMERIS_TYPE":0,"CLASSIFICATION_TYPE":"U","NORAD_CAT_ID":49295,"ELEMENT_SET_NO":999,"REV_AT_EPOCH":22548,"BSTAR":-6.5461e-05,"MEAN_MOTION_DOT":-1.3e-07,"MEAN_MOTION_DDOT":0.0},{"OBJECT_NAME":"ONEWEB-0370","OBJECT_ID":"2021-090T","EPOCH":"2026-06-10T01:13:50.068416","MEAN_MOTION":13.20770424,"ECCENTRICITY":0.0002123,"INCLINATION":87.9191,"RA_OF_ASC_NODE":275.8622,"ARG_OF_PERICENTER":107.4376,"MEAN_ANOMALY":252.699,"EPHEMERIS_TYPE":0,"CLASSIFICATION_TYPE":"U","NORAD_CAT_ID":49296,"ELEMENT_SET_NO":999,"REV_AT_EPOCH":22892,"BSTAR":-8.938e-05,"MEAN_MOTION_DOT":-2.3e-07,"MEAN_MOTION_DDOT":0.0},{"OBJECT_NAME":"ONEWEB-0371","OBJECT_ID":"2021-090U","EPOCH":"2026-06-10T03:20:00.605760","MEAN_MOTION":13.1972387,"ECCENTRICITY":0.0001805,"INCLINATION":87.917,"RA_OF_ASC_NODE":306.3706,"ARG_OF_PERICENTER":100.7931,"MEAN_ANOMALY":259.3405,"EPHEMERIS_TYPE":0,"CLASSIFICATION_TYPE":"U","NORAD_CAT_ID":49297,"ELEMENT_SET_NO":999,"REV_AT_EPOCH":22552,"BSTAR":-2.8482000000000003e-05,"MEAN_MOTION_DOT":2e-08,"MEAN_MOTION_DDOT":0.0}]