ONEWEB-0353             
1 49282U 21090D   26161.05563924  .00000100  00000+0  23504-3 0  9994
2 49282  87.8964 291.1260 0001644  96.3657 263.7660 13.14502786226648
ONEWEB-0356             
1 49283U 21090E   26161.02940417  .00000038  00000+0  60994-4 0  9993
2 49283  87.9189 275.8610 0002286  80.3829 279.7563 13.20773429228882
ONEWEB-0358             
1 49284U 21090F   26161.05948150 -.00031434  00000+0 -78017-1 0  9997
2 49284  87.9195 275.8590 0002045  98.7378 261.3987 13.20418322229619
ONEWEB-0359             
1 49285U 21090G   26161.05633828  .00000035  00000+0  53692-4 0  9997
2 49285  87.9190 275.8554 0002257 102.1716 257.9670 13.20772484229595
ONEWEB-0360             
1 49286U 21090H   26161.04623943  .00001314  00000+0  32004-2 0  9997
2 49286  87.9191 275.8637 0002112 102.6770 257.4600 13.20765509228906
ONEWEB-0361             
1 49287U 21090J   26161.02770961  .00000010  00000+0 -71289-5 0  9993
2 49287  87.9190 275.8659 0002097  99.4181 260.7190 13.20770849229355
ONEWEB-0362             
1 49288U 21090K   26161.12625829  .00000021  00000+0  19078-4 0  9995
2 49288  87.9163 306.3851 0001803 106.1810 253.9521 13.19724096225987
ONEWEB-0363             
1 49289U 21090L   26161.04285606  .00000012  00000+0 -21656-5 0  9999
2 49289  87.9191 275.8631 0002123  92.4226 267.7151 13.20770410229360
ONEWEB-0364             
1 49290U 21090M   26160.77855632  .00000008  00000+0 -11900-4 0  9997
2 49290  87.9185 275.9238 0001967 101.2480 258.8875 13.20770982230466
ONEWEB-0365             
1 49291U 21090N   26161.13574101 -.00000017  00000+0 -73572-4 0  9992
2 49291  87.9172 306.3713 0001774  98.9249 261.2085 13.19724463225490
ONEWEB-0366             
1 49292U 21090P   26161.05246440  .00000139  00000+0  34029-3 0  9992
2 49292  87.8958 291.1288 0001929 100.0400 260.0947 13.14502575226629
ONEWEB-0367             
1 49293U 21090Q   26161.04202889  .00001161  00000+0  28224-2 0  9996
2 49293  87.9195 275.8645 0001888 104.8326 255.3016 13.20787801228881
ONEWEB-0368             
1 49294U 21090R   26160.86440152 -.00000025  00000+0 -93773-4 0  9996
2 49294  87.9178 275.9110 0001601  78.8737 281.2576 13.20770193230013
ONEWEB-0369             
1 49295U 21090S   26161.13100637 -.00000013  00000+0 -65461-4 0  9999
2 49295  87.9162 306.3804 0001785  96.2186 263.9150 13.19724343225485
ONEWEB-0370             
1 49296U 21090T   26161.05127394 -.00000023  00000+0 -89380-4 0  9997
2 49296  87.9191 275.8622 0002123 107.4376 252.6990 13.20770424228921
ONEWEB-0371             
1 49297U 21090U   26161.13889590  .00000002  00000+0 -28482-4 0  9992
2 49297  87.9170 306.3706 0001805 100.7931 259.3405 13.19723870225520
